[{"OBJECT_NAME":"STARLINK-3133","OBJECT_ID":"2021-104J","EPOCH":"2026-03-09T16:59:52.745568","MEAN_MOTION":15.08840036,"ECCENTRICITY":0.00013058,"INCLINATION":53.2172,"RA_OF_ASC_NODE":229.0392,"ARG_OF_PERICENTER":78.074,"MEAN_ANOMALY":282.0399,"EPHEMERIS_TYPE":0,"CLASSIFICATION_TYPE":"U","NORAD_CAT_ID":49416,"ELEMENT_SET_NO":999,"REV_AT_EPOCH":23863,"BSTAR":3.7184974e-5,"MEAN_MOTION_DOT":3.04e-6,"MEAN_MOTION_DDOT":0},{"OBJECT_NAME":"COSMOS 397 DEB","OBJECT_ID":"1971-015AG","EPOCH":"2026-03-09T22:22:53.777568","MEAN_MOTION":14.12365411,"ECCENTRICITY":0.0445918,"INCLINATION":65.7074,"RA_OF_ASC_NODE":278.293,"ARG_OF_PERICENTER":75.555,"MEAN_ANOMALY":289.457,"EPHEMERIS_TYPE":0,"CLASSIFICATION_TYPE":"U","NORAD_CAT_ID":5144,"ELEMENT_SET_NO":999,"REV_AT_EPOCH":68427,"BSTAR":0.0016503671,"MEAN_MOTION_DOT":7.82e-5,"MEAN_MOTION_DDOT":0}]
